FLOCK 4BE-22            
1 60494U 24149AC  26065.18066657  .00022370  00000+0  60821-3 0  9994
2 60494  97.3781 148.0127 0002763 276.5088  83.5842 15.37557054 86452
FLOCK 4BE-34            
1 60495U 24149AD  26065.20332536  .00017392  00000+0  46953-3 0  9998
2 60495  97.3825 148.7804 0002330 278.9518  81.1463 15.37830063 86485
FLOCK 4BE-32            
1 60497U 24149AF  26065.22250269  .00022176  00000+0  58880-3 0  9992
2 60497  97.3769 148.3064 0002706 279.5671  80.5268 15.38292596 86482
FLOCK 4BE-30            
1 60499U 24149AH  26065.16821800  .00014732  00000+0  39497-3 0  9994
2 60499  97.3853 148.8112 0001987 277.5822  82.5197 15.38080785 85851
FLOCK 4BE-11            
1 60501U 24149AK  26065.20777393  .00023551  00000+0  60857-3 0  9993
2 60501  97.3748 148.4191 0003079 279.7253  80.3645 15.39115067 86495
FLOCK 4BE-24            
1 60505U 24149AP  26065.18907316  .00023810  00000+0  61794-3 0  9993
2 60505  97.3764 148.6464 0002939 290.4511  69.6419 15.38980445 86503
TANAGER-1               
1 60507U 24149AR  26064.34973296  .00005482  00000+0  12407-3 0  9994
2 60507  97.3770 157.6642 0006725 235.9479 124.1131 15.43548696 87013
FLOCK 4BE-29            
1 60509U 24149AT  26065.21863815  .00025551  00000+0  63576-3 0  9990
2 60509  97.3848 149.8126 0001951 310.1031  50.0044 15.40257896 86540
FLOCK 4BE-2             
1 60511U 24149AV  26065.19242065  .00044659  00000+0  10165-2 0  9993
2 60511  97.3854 150.3506 0002779 286.1155  73.9786 15.42828947 86570
FLOCK 4BE-13            
1 60512U 24149AW  26065.19467357  .00020167  00000+0  52944-3 0  9997
2 60512  97.3766 148.7545 0003423 282.3434  77.7428 15.38659812 86519
FLOCK 4BE-27            
1 60513U 24149AX  26065.22756385  .00012417  00000+0  39795-3 0  9992
2 60513  97.3870 147.1582 0002808 323.4674  36.6376 15.32496893 86360
FLOCK 4BE-9             
1 60514U 24149AY  26065.17732883  .00017822  00000+0  48724-3 0  9991
2 60514  97.3832 148.6883 0001548 316.8578  43.2545 15.37434715 86472
FLOCK 4BE-6             
1 60516U 24149BA  26065.19879826  .00016596  00000+0  46807-3 0  9991
2 60516  97.3838 148.2402 0002307 310.1409  49.9633 15.36478486 86447
FLOCK 4BE-14            
1 60517U 24149BB  26065.19981008  .00019297  00000+0  52566-3 0  9998
2 60517  97.3749 148.3121 0003276 306.2436  53.8505 15.37526499 86485
FLOCK 4BE-1             
1 60518U 24149BC  26065.18429617  .00020248  00000+0  52924-3 0  9997
2 60518  97.3824 149.2306 0003268 301.8780  58.2147 15.38793321 86515
FLOCK 4BE-28            
1 60519U 24149BD  26065.21518838  .00025287  00000+0  61770-3 0  9993
2 60519  97.3789 149.6870 0003537 301.5859  58.5042 15.40816466 86560
